27 13
Telesat-synthetic 184
1 00185U 00000ABC 00001.00000000  .00000000  00000-0  00000+0 0    07
2 00185  98.9800 186.6667 0000001   0.0000  55.3846 13.94000000    09
Telesat-synthetic 185
1 00186U 00000ABC 00001.00000000  .00000000  00000-0  00000+0 0    08
2 00186  98.9800 186.6667 0000001   0.0000  83.0769 13.94000000    02
Telesat-synthetic 186
1 00187U 00000ABC 00001.00000000  .00000000  00000-0  00000+0 0    09
2 00187  98.9800 186.6667 0000001   0.0000 110.7692 13.94000000    06
Telesat-synthetic 187
1 00188U 00000ABC 00001.00000000  .00000000  00000-0  00000+0 0    00
2 00188  98.9800 186.6667 0000001   0.0000 138.4615 13.94000000    09
Telesat-synthetic 188
1 00189U 00000ABC 00001.00000000  .00000000  00000-0  00000+0 0    01
2 00189  98.9800 186.6667 0000001   0.0000 166.1538 13.94000000    02
Telesat-synthetic 189
1 00190U 00000ABC 00001.00000000  .00000000  00000-0  00000+0 0    03
2 00190  98.9800 186.6667 0000001   0.0000 193.8462 13.94000000    07
Telesat-synthetic 190
1 00191U 00000ABC 00001.00000000  .00000000  00000-0  00000+0 0    04
2 00191  98.9800 186.6667 0000001   0.0000 221.5385 13.94000000    01
Telesat-synthetic 191
1 00192U 00000ABC 00001.00000000  .00000000  00000-0  00000+0 0    05
2 00192  98.9800 186.6667 0000001   0.0000 249.2308 13.94000000    04
Telesat-synthetic 192
1 00193U 00000ABC 00001.00000000  .00000000  00000-0  00000+0 0    06
2 00193  98.9800 186.6667 0000001   0.0000 276.9231 13.94000000    07
Telesat-synthetic 193
1 00194U 00000ABC 00001.00000000  .00000000  00000-0  00000+0 0    07
2 00194  98.9800 186.6667 0000001   0.0000 304.6154 13.94000000    01
Telesat-synthetic 194
1 00195U 00000ABC 00001.00000000  .00000000  00000-0  00000+0 0    08
2 00195  98.9800 186.6667 0000001   0.0000 332.3077 13.94000000    04
Telesat-synthetic 195
1 00196U 00000ABC 00001.00000000  .00000000  00000-0  00000+0 0    09
2 00196  98.9800 200.0000 0000001   0.0000  13.8462 13.94000000    06
Telesat-synthetic 196
1 00197U 00000ABC 00001.00000000  .00000000  00000-0  00000+0 0    00
2 00197  98.9800 200.0000 0000001   0.0000  41.5385 13.94000000    09
Telesat-synthetic 197
1 00198U 00000ABC 00001.00000000  .00000000  00000-0  00000+0 0    01
2 00198  98.9800 200.0000 0000001   0.0000  69.2308 13.94000000    02
Telesat-synthetic 198
1 00199U 00000ABC 00001.00000000  .00000000  00000-0  00000+0 0    02
2 00199  98.9800 200.0000 0000001   0.0000  96.9231 13.94000000    05
Telesat-synthetic 199
1 00200U 00000ABC 00001.00000000  .00000000  00000-0  00000+0 0    05
2 00200  98.9800 200.0000 0000001   0.0000 124.6154 13.94000000    01
Telesat-synthetic 200
1 00201U 00000ABC 00001.00000000  .00000000  00000-0  00000+0 0    06
2 00201  98.9800 200.0000 0000001   0.0000 152.3077 13.94000000    04
Telesat-synthetic 201
1 00202U 00000ABC 00001.00000000  .00000000  00000-0  00000+0 0    07
2 00202  98.9800 200.0000 0000001   0.0000 180.0000 13.94000000    09
Telesat-synthetic 202
1 00203U 00000ABC 00001.00000000  .00000000  00000-0  00000+0 0    08
2 00203  98.9800 200.0000 0000001   0.0000 207.6923 13.94000000    00
Telesat-synthetic 203
1 00204U 00000ABC 00001.00000000  .00000000  00000-0  00000+0 0    09
2 00204  98.9800 200.0000 0000001   0.0000 235.3846 13.94000000    03
Telesat-synthetic 204
1 00205U 00000ABC 00001.00000000  .00000000  00000-0  00000+0 0    00
2 00205  98.9800 200.0000 0000001   0.0000 263.0769 13.94000000    06
Telesat-synthetic 205
1 00206U 00000ABC 00001.00000000  .00000000  00000-0  00000+0 0    01
2 00206  98.9800 200.0000 0000001   0.0000 290.7692 13.94000000    09
Telesat-synthetic 206
1 00207U 00000ABC 00001.00000000  .00000000  00000-0  00000+0 0    02
2 00207  98.9800 200.0000 0000001   0.0000 318.4615 13.94000000    03
Telesat-synthetic 207
1 00208U 00000ABC 00001.00000000  .00000000  00000-0  00000+0 0    03
2 00208  98.9800 200.0000 0000001   0.0000 346.1538 13.94000000    06
Telesat-synthetic 208
1 00209U 00000ABC 00001.00000000  .00000000  00000-0  00000+0 0    04
2 00209  98.9800 213.3333 0000001   0.0000   0.0000 13.94000000    03
Telesat-synthetic 209
1 00210U 00000ABC 00001.00000000  .00000000  00000-0  00000+0 0    06
2 00210  98.9800 213.3333 0000001   0.0000  27.6923 13.94000000    04
Telesat-synthetic 210
1 00211U 00000ABC 00001.00000000  .00000000  00000-0  00000+0 0    07
2 00211  98.9800 213.3333 0000001   0.0000  55.3846 13.94000000    07
Telesat-synthetic 211
1 00212U 00000ABC 00001.00000000  .00000000  00000-0  00000+0 0    08
2 00212  98.9800 213.3333 0000001   0.0000  83.0769 13.94000000    00
Telesat-synthetic 212
1 00213U 00000ABC 00001.00000000  .00000000  00000-0  00000+0 0    09
2 00213  98.9800 213.3333 0000001   0.0000 110.7692 13.94000000    04
Telesat-synthetic 213
1 00214U 00000ABC 00001.00000000  .00000000  00000-0  00000+0 0    00
2 00214  98.9800 213.3333 0000001   0.0000 138.4615 13.94000000    07
Telesat-synthetic 214
1 00215U 00000ABC 00001.00000000  .00000000  00000-0  00000+0 0    01
2 00215  98.9800 213.3333 0000001   0.0000 166.1538 13.94000000    00
Telesat-synthetic 215
1 00216U 00000ABC 00001.00000000  .00000000  00000-0  00000+0 0    02
2 00216  98.9800 213.3333 0000001   0.0000 193.8462 13.94000000    04
Telesat-synthetic 216
1 00217U 00000ABC 00001.00000000  .00000000  00000-0  00000+0 0    03
2 00217  98.9800 213.3333 0000001   0.0000 221.5385 13.94000000    08
Telesat-synthetic 217
1 00218U 00000ABC 00001.00000000  .00000000  00000-0  00000+0 0    04
2 00218  98.9800 213.3333 0000001   0.0000 249.2308 13.94000000    01
Telesat-synthetic 218
1 00219U 00000ABC 00001.00000000  .00000000  00000-0  00000+0 0    05
2 00219  98.9800 213.3333 0000001   0.0000 276.9231 13.94000000    04
Telesat-synthetic 219
1 00220U 00000ABC 00001.00000000  .00000000  00000-0  00000+0 0    07
2 00220  98.9800 213.3333 0000001   0.0000 304.6154 13.94000000    09
Telesat-synthetic 220
1 00221U 00000ABC 00001.00000000  .00000000  00000-0  00000+0 0    08
2 00221  98.9800 213.3333 0000001   0.0000 332.3077 13.94000000    02
Telesat-synthetic 221
1 00222U 00000ABC 00001.00000000  .00000000  00000-0  00000+0 0    09
2 00222  98.9800 226.6667 0000001   0.0000  13.8462 13.94000000    09
Telesat-synthetic 222
1 00223U 00000ABC 00001.00000000  .00000000  00000-0  00000+0 0    00
2 00223  98.9800 226.6667 0000001   0.0000  41.5385 13.94000000    02
Telesat-synthetic 223
1 00224U 00000ABC 00001.00000000  .00000000  00000-0  00000+0 0    01
2 00224  98.9800 226.6667 0000001   0.0000  69.2308 13.94000000    05
Telesat-synthetic 224
1 00225U 00000ABC 00001.00000000  .00000000  00000-0  00000+0 0    02
2 00225  98.9800 226.6667 0000001   0.0000  96.9231 13.94000000    08
Telesat-synthetic 225
1 00226U 00000ABC 00001.00000000  .00000000  00000-0  00000+0 0    03
2 00226  98.9800 226.6667 0000001   0.0000 124.6154 13.94000000    02
Telesat-synthetic 226
1 00227U 00000ABC 00001.00000000  .00000000  00000-0  00000+0 0    04
2 00227  98.9800 226.6667 0000001   0.0000 152.3077 13.94000000    05
Telesat-synthetic 227
1 00228U 00000ABC 00001.00000000  .00000000  00000-0  00000+0 0    05
2 00228  98.9800 226.6667 0000001   0.0000 180.0000 13.94000000    00
Telesat-synthetic 228
1 00229U 00000ABC 00001.00000000  .00000000  00000-0  00000+0 0    06
2 00229  98.9800 226.6667 0000001   0.0000 207.6923 13.94000000    01
Telesat-synthetic 229
1 00230U 00000ABC 00001.00000000  .00000000  00000-0  00000+0 0    08
2 00230  98.9800 226.6667 0000001   0.0000 235.3846 13.94000000    05
Telesat-synthetic 230
1 00231U 00000ABC 00001.00000000  .00000000  00000-0  00000+0 0    09
2 00231  98.9800 226.6667 0000001   0.0000 263.0769 13.94000000    08
Telesat-synthetic 231
1 00232U 00000ABC 00001.00000000  .00000000  00000-0  00000+0 0    00
2 00232  98.9800 226.6667 0000001   0.0000 290.7692 13.94000000    01
Telesat-synthetic 232
1 00233U 00000ABC 00001.00000000  .00000000  00000-0  00000+0 0    01
2 00233  98.9800 226.6667 0000001   0.0000 318.4615 13.94000000    05
Telesat-synthetic 233
1 00234U 00000ABC 00001.00000000  .00000000  00000-0  00000+0 0    02
2 00234  98.9800 226.6667 0000001   0.0000 346.1538 13.94000000    08
Telesat-synthetic 234
1 00235U 00000ABC 00001.00000000  .00000000  00000-0  00000+0 0    03
2 00235  98.9800 240.0000 0000001   0.0000   0.0000 13.94000000    00
Telesat-synthetic 235
1 00236U 00000ABC 00001.00000000  .00000000  00000-0  00000+0 0    04
2 00236  98.9800 240.0000 0000001   0.0000  27.6923 13.94000000    00
Telesat-synthetic 236
1 00237U 00000ABC 00001.00000000  .00000000  00000-0  00000+0 0    05
2 00237  98.9800 240.0000 0000001   0.0000  55.3846 13.94000000    03
Telesat-synthetic 237
1 00238U 00000ABC 00001.00000000  .00000000  00000-0  00000+0 0    06
2 00238  98.9800 240.0000 0000001   0.0000  83.0769 13.94000000    06
Telesat-synthetic 238
1 00239U 00000ABC 00001.00000000  .00000000  00000-0  00000+0 0    07
2 00239  98.9800 240.0000 0000001   0.0000 110.7692 13.94000000    00
Telesat-synthetic 239
1 00240U 00000ABC 00001.00000000  .00000000  00000-0  00000+0 0    09
2 00240  98.9800 240.0000 0000001   0.0000 138.4615 13.94000000    04
Telesat-synthetic 240
1 00241U 00000ABC 00001.00000000  .00000000  00000-0  00000+0 0    00
2 00241  98.9800 240.0000 0000001   0.0000 166.1538 13.94000000    07
Telesat-synthetic 241
1 00242U 00000ABC 00001.00000000  .00000000  00000-0  00000+0 0    01
2 00242  98.9800 240.0000 0000001   0.0000 193.8462 13.94000000    01
Telesat-synthetic 242
1 00243U 00000ABC 00001.00000000  .00000000  00000-0  00000+0 0    02
2 00243  98.9800 240.0000 0000001   0.0000 221.5385 13.94000000    05
Telesat-synthetic 243
1 00244U 00000ABC 00001.00000000  .00000000  00000-0  00000+0 0    03
2 00244  98.9800 240.0000 0000001   0.0000 249.2308 13.94000000    08
Telesat-synthetic 244
1 00245U 00000ABC 00001.00000000  .00000000  00000-0  00000+0 0    04
2 00245  98.9800 240.0000 0000001   0.0000 276.9231 13.94000000    01
